NOAA-18
1 28654U 05018A   06348.32286655  .00000429  00000-0  26274-3 0  7589
2 28654 098.8100 287.9049 0015074 072.2787 288.0036 14.11020041 80786
HUBBLE
1 20580U 90037B   06347.26544773  .00000706  00000-0  42201-4 0 07671
2 20580 028.4692 322.4132 0003628 281.8494 078.1686 15.00154929712013
UARS
1 21701U 91063B   06347.64576683  .00008553  00000-0  15197-3 0  9442
2 21701 056.9758 037.8185 0097551 190.8747 169.0201 15.45996978837031
PO-34
1 25520U 98064B   06347.97482086  .00000885  00000-0  34032-4 0 06326
2 25520 028.4609 268.2592 0004968 038.9079 321.1863 15.16875301449370
ISS
1 25544U 98067A   06349.02101644  .00022969  00000-0  14659-3 0  2607
2 25544 051.6361 335.2064 0023640 337.1016 119.2940 15.75897625461690
OO-38
1 26063U 00004C   06348.64210280  .00000023  00000-0  28193-4 0  7906
2 26063 100.2101 312.3258 0036738 319.6560 040.1890 14.35789164360565
NO-45
1 26932U 01043D   06347.96168680 -.00000015  00000-0  26413-4 0 04941
2 26932 067.0514 264.3480 0003615 247.7696 112.3020 14.29543536271663
UWE-1
1 28892U 05043C   06348.85802681  .00000508  00000-0  11670-3 0  6280
2 28892 098.1463 243.9595 0017127 331.1410 028.8905 14.59440744 60325
CO-58
1 28895U 05043F   06347.40318668  .00000154  00000-0  42209-4 0 06099
2 28895 098.1498 242.6730 0017397 335.5007 024.5350 14.59487152059994
