Satellite: NOAA-18
Catalog number: 28654
Epoch time:      06348.32286655
Element set:     758
Inclination:      098.8100 deg
RA of node:       287.9049 deg
Eccentricity:    0.0015074
Arg of perigee:   072.2787 deg
Mean anomaly:     288.0036 deg
Mean motion:   14.11020041 rev/day
Decay rate:       4.29e-06 rev/day^2
Epoch rev:            8078
Checksum:              316

/EX
SB KEPS @ AMSAT  $ORB06348.M
Orbital Elements  06348.MISC

HR AMSAT ORBITAL ELEMENTS FOR MANNED AND MISCELLANEOUS SATELLITES
FROM WA5QGD FORT WORTH,TX December 14, 2006
Send SUBSCRIBE KEPS/UNSUBSCRIBE KEPS to majordomo at amsat.org only
BID: ORB06348.M
TO ALL RADIO AMATEURS BT

Satellite: HUBBLE
Catalog number: 20580
Epoch time:      06347.26544773
Element set:    0767
Inclination:      028.4692 deg
RA of node:       322.4132 deg
Eccentricity:    0.0003628
Arg of perigee:   281.8494 deg
Mean anomaly:     078.1686 deg
Mean motion:   15.00154929 rev/day
Decay rate:       7.06e-06 rev/day^2
Epoch rev:           71201
Checksum:              301

Satellite: UARS
Catalog number: 21701
Epoch time:      06347.64576683
Element set:     944
Inclination:      056.9758 deg
RA of node:       037.8185 deg
Eccentricity:    0.0097551
Arg of perigee:   190.8747 deg
Mean anomaly:     169.0201 deg
Mean motion:   15.45996978 rev/day
Decay rate:      8.553e-05 rev/day^2
Epoch rev:           83703
Checksum:              360

Satellite: PO-34
Catalog number: 25520
Epoch time:      06347.97482086
Element set:    0632
Inclination:      028.4609 deg
RA of node:       268.2592 deg
Eccentricity:    0.0004968
Arg of perigee:   038.9079 deg
Mean anomaly:     321.1863 deg
Mean motion:   15.16875301 rev/day
Decay rate:       8.85e-06 rev/day^2
Epoch rev:           44937
Checksum:              341

Satellite: ISS
Catalog number: 25544
Epoch time:      06349.02101644
Element set:     260
Inclination:      051.6361 deg
RA of node:       335.2064 deg
Eccentricity:    0.0023640
Arg of perigee:   337.1016 deg
Mean anomaly:     119.2940 deg
Mean motion:   15.75897625 rev/day
Decay rate:     2.2969e-04 rev/day^2
Epoch rev:           46169
Checksum:              291

Satellite: OO-38
Catalog number: 26063
Epoch time:      06348.64210280
Element set:     790
Inclination:      100.2101 deg
RA of node:       312.3258 deg
Eccentricity:    0.0036738
Arg of perigee:   319.6560 deg
Mean anomaly:     040.1890 deg
Mean motion:   14.35789164 rev/day
Decay rate:        2.3e-07 rev/day^2
Epoch rev:           36056
Checksum:              280

Satellite: NO-45
Catalog number: 26932
Epoch time:      06347.96168680
Element set:    0494
Inclination:      067.0514 deg
RA of node:       264.3480 deg
Eccentricity:    0.0003615
Arg of perigee:   247.7696 deg
Mean anomaly:     112.3020 deg
Mean motion:   14.29543536 rev/day
Decay rate:       -1.5e-07 rev/day^2
Epoch rev:           27166
Checksum:              309

Satellite: UWE-1
Catalog number: 28892
Epoch time:      06348.85802681
Element set:     628
Inclination:      098.1463 deg
RA of node:       243.9595 deg
Eccentricity:    0.0017127
Arg of perigee:   331.1410 deg
Mean anomaly:     028.8905 deg
Mean motion:   14.59440744 rev/day
Decay rate:       5.08e-06 rev/day^2
Epoch rev:            6032
Checksum:              312

Satellite: CO-58
Catalog number: 28895
Epoch time:      06347.40318668
Element set:    0609
Inclination:      098.1498 deg
RA of node:       242.6730 deg
Eccentricity:    0.0017397
Arg of perigee:   335.5007 deg
Mean anomaly:     024.5350 deg
Mean motion:   14.59487152 rev/day
Decay rate:       1.54e-06 rev/day^2
Epoch rev:           05999
Checksum:              346

